{
  "type": "FeatureCollection",
  "features": [
    {
      "type": "Feature",
      "properties": {
        "name": "Macquarie Coal Complex Transformation Precinct",
        "gross_area_ha": 1100.0,
        "lga": "Lake Macquarie City Council"
      },
      "geometry": {
        "type": "Polygon",
        "coordinates": [
          [
            [
              151.565,
              -32.915
            ],
            [
              151.605,
              -32.915
            ],
            [
              151.615,
              -32.945
            ],
            [
              151.595,
              -32.96
            ],
            [
              151.56,
              -32.955
            ],
            [
              151.555,
              -32.93
            ],
            [
              151.565,
              -32.915
            ]
          ]
        ]
      }
    }
  ]
}