{
  "type": "FeatureCollection",
  "features": [
    {
      "type": "Feature",
      "properties": {
        "name": "Macquarie Intermodal Rail Terminal (MIRT) 1.8km Loop",
        "type": "Heavy Rail Loop",
        "capacity_tpa": 350000
      },
      "geometry": {
        "type": "LineString",
        "coordinates": [
          [
            151.608,
            -32.93
          ],
          [
            151.604,
            -32.935
          ],
          [
            151.6,
            -32.938
          ],
          [
            151.602,
            -32.942
          ],
          [
            151.607,
            -32.938
          ],
          [
            151.608,
            -32.93
          ]
        ]
      }
    },
    {
      "type": "Feature",
      "properties": {
        "name": "Internal Haul Road Gazetted Heavy Transport Spine (7.8km)",
        "type": "Arterial Road",
        "rating": "B-Double / PBS 2A"
      },
      "geometry": {
        "type": "LineString",
        "coordinates": [
          [
            151.562,
            -32.92
          ],
          [
            151.57,
            -32.928
          ],
          [
            151.578,
            -32.935
          ],
          [
            151.585,
            -32.94
          ],
          [
            151.595,
            -32.945
          ],
          [
            151.605,
            -32.95
          ]
        ]
      }
    }
  ]
}